OBJECT_NAME,OBJECT_ID,EPOCH,MEAN_MOTION,ECCENTRICITY,INCLINATION,RA_OF_ASC_NODE,ARG_OF_PERICENTER,MEAN_ANOMALY,EPHEMERIS_TYPE,CLASSIFICATION_TYPE,NORAD_CAT_ID,ELEMENT_SET_NO,REV_AT_EPOCH,BSTAR,MEAN_MOTION_DOT,MEAN_MOTION_DDOT
SUPERVIEW NEO-2 01,2022-082A,2026-07-15T23:36:06.338016,15.24500074,.00017737,97.3936,206.5668,88.9787,271.1654,0,U,53128,999,22259,.13981765E-3,.3366E-4,0
SUPERVIEW NEO-2 02,2022-082C,2026-07-15T22:35:10.474944,15.24501008,.00016612,97.3945,206.5811,90.2987,269.8440,0,U,53130,999,22259,.4253767E-5,.34E-6,0
STARLINK-4150,2022-083C,2026-07-15T22:00:01.999584,15.29160422,.00005736,53.1605,316.9683,94.3677,200.5421,0,U,53134,999,575,.64214721E-3,.18108E-3,0
STARLINK-4023,2022-083D,2026-07-15T17:22:25.043808,15.35391805,.00011566,53.1604,315.5852,67.3044,292.8081,0,U,53135,999,22158,-.3326519E-5,-.496E-5,0
STARLINK-4152,2022-083E,2026-07-15T22:00:01.999584,15.27136666,.00017433,53.1609,317.0843,71.9680,143.4562,0,U,53136,999,574,.83142734E-3,.22137E-3,0
STARLINK-4145,2022-083F,2026-07-15T22:00:01.999584,15.23418179,.00013294,53.1608,317.1187,44.8808,192.7783,0,U,53137,999,575,.66352208E-3,.157E-3,0
STARLINK-4141,2022-083G,2026-07-15T22:00:01.999584,15.17478989,.0001,53.1599,313.2506,82.1957,32.6032,0,U,53138,999,580,.88718731E-3,.17718E-3,0
STARLINK-4185,2022-083H,2026-07-15T12:04:43.993344,15.08830002,.0001164,53.1610,320.0804,97.2267,262.8857,0,U,53139,999,22051,.955482E-6,-.273E-5,0
STARLINK-4170,2022-083J,2026-07-15T22:00:01.999584,15.24403292,.00006892,53.1605,317.4064,26.3397,103.1361,0,U,53140,999,570,.95017911E-3,.23332E-3,0
STARLINK-4103,2022-083K,2026-07-15T22:00:01.999584,15.35411983,.00011221,53.1592,314.9221,67.8215,357.3197,0,U,53141,999,579,-.32795943E-3,-.11807E-3,0
STARLINK-4101,2022-083L,2026-07-15T12:50:05.856000,15.33547090,.00009992,53.1615,316.8135,75.1768,284.9345,0,U,53142,999,22057,.10481366E-4,-.28E-6,0
STARLINK-4102,2022-083M,2026-07-15T20:24:48.398688,15.14267439,.00008641,53.1622,317.4929,176.8694,183.2306,0,U,53143,999,22058,-.16444717E-3,-.3345E-4,0
STARLINK-4100,2022-083N,2026-07-15T12:27:16.102368,15.33542571,.00014933,53.1612,316.7652,49.0746,311.0386,0,U,53144,999,22056,.1904103E-4,.253E-5,0
STARLINK-4106,2022-083P,2026-07-15T22:00:01.999584,15.29373154,.00009,53.1603,316.8828,70.0485,128.0895,0,U,53145,999,579,-.40282771E-3,-.11967E-3,0
STARLINK-4094,2022-083R,2026-07-15T19:23:53.479104,15.35404201,.0000998,53.1617,315.2418,72.3301,287.7811,0,U,53147,999,22126,.15338114E-4,.155E-5,0
STARLINK-4021,2022-083T,2026-07-15T22:00:01.999584,15.31666297,.00011513,53.1597,306.6598,68.6757,215.2683,0,U,53149,999,554,.42591667E-3,.12861E-3,0
STARLINK-4040,2022-083V,2026-07-15T22:00:01.999584,15.19204697,.00008799,53.1587,307.3517,99.5473,33.8493,0,U,53151,999,569,.38120625E-3,.7813E-4,0
STARLINK-4045,2022-083W,2026-07-15T22:00:01.999584,15.63762637,.00013023,53.2162,288.4341,55.6654,126.4620,0,U,53152,999,590,.15152555E-2,.146403E-2,0
STARLINK-4098,2022-083X,2026-07-15T12:11:21.404832,15.08831618,.00012383,53.1612,310.0624,58.2012,301.9100,0,U,53153,999,22065,.63034355E-4,.715E-5,0
STARLINK-4077,2022-083Y,2026-07-15T12:21:57.192192,15.08831092,.00010395,53.1609,310.0276,65.1322,294.9778,0,U,53154,999,22065,.62492909E-4,.707E-5,0
STARLINK-4088,2022-083Z,2026-07-15T16:46:55.103232,15.08832021,.00010839,53.1614,309.2004,83.9834,276.1281,0,U,53155,999,22132,.14441418E-4,-.58E-6,0
STARLINK-4087,2022-083AA,2026-07-15T13:20:13.580736,15.08831153,.0001143,53.1609,309.7194,87.0815,273.0307,0,U,53156,999,22066,.16005E-4,-.33E-6,0
STARLINK-4054,2022-083AC,2026-07-15T22:00:01.999584,15.22959546,.00002959,53.1598,307.1922,179.4191,75.3468,0,U,53158,999,559,.13220778E-3,.2814E-4,0
STARLINK-4111,2022-083AD,2026-07-15T13:14:59.813088,15.08788011,.00014344,53.1611,309.8631,98.1703,261.9451,0,U,53159,999,22066,-.28780948E-3,-.4859E-4,0
STARLINK-4096,2022-083AE,2026-07-15T11:55:27.630048,15.08832602,.00009319,53.1623,310.1124,86.0701,274.0397,0,U,53160,999,22065,.12148752E-4,-.94E-6,0
STARLINK-4055,2022-083AF,2026-07-15T22:00:01.999584,15.21616254,.00011932,53.1611,307.3828,1.6871,315.2654,0,U,53161,999,579,.14030604E-3,.2882E-4,0
STARLINK-4114,2022-083AG,2026-07-15T22:00:01.999584,15.25856737,.0001683,53.1588,307.6221,68.3784,43.6159,0,U,53162,999,564,.54085695E-3,.13712E-3,0
STARLINK-4104,2022-083AH,2026-07-15T17:55:50.713536,15.08828794,.0001075,53.1609,309.1302,113.2386,246.8719,0,U,53163,999,22069,-.2421633E-3,-.4139E-4,0
STARLINK-4116,2022-083AJ,2026-07-15T13:04:20.714016,15.08833446,.00010599,53.1606,309.8966,93.1547,266.9565,0,U,53164,999,22066,-.39113157E-4,-.91E-5,0
STARLINK-4090,2022-083AK,2026-07-15T19:04:41.284128,15.08828260,.00012137,53.1594,308.7646,98.5419,261.5710,0,U,53165,999,22070,.73807939E-4,.887E-5,0
