SUPERVIEW NEO-2 01      
1 53128U 22082A   26196.98340669  .00003366  00000+0  13982-3 0  9995
2 53128  97.3936 206.5668 0001773  88.9787 271.1654 15.24500074222590
SUPERVIEW NEO-2 02      
1 53130U 22082C   26196.94109346  .00000034  00000+0  42538-5 0  9999
2 53130  97.3945 206.5811 0001661  90.2987 269.8440 15.24501008222592
STARLINK-4150           
1 53134U 22083C   26196.91668981  .00018108  00000+0  64215-3 0  9991
2 53134  53.1605 316.9683 0000573  94.3677 200.5421 15.29160422  5758
STARLINK-4023           
1 53135U 22083D   26196.72390097 -.00000496  00000+0 -33265-5 0  9997
2 53135  53.1604 315.5852 0001156  67.3044 292.8081 15.35391805221582
STARLINK-4152           
1 53136U 22083E   26196.91668981  .00022137  00000+0  83143-3 0  9991
2 53136  53.1609 317.0843 0001743  71.9680 143.4562 15.27136666  5740
STARLINK-4145           
1 53137U 22083F   26196.91668981  .00015700  00000+0  66352-3 0  9993
2 53137  53.1608 317.1187 0001329  44.8808 192.7783 15.23418179  5754
STARLINK-4141           
1 53138U 22083G   26196.91668981  .00017718  00000+0  88719-3 0  9996
2 53138  53.1599 313.2506 0001000  82.1957  32.6032 15.17478989  5805
STARLINK-4185           
1 53139U 22083H   26196.50328696 -.00000273  00000+0  95548-6 0  9998
2 53139  53.1610 320.0804 0001164  97.2267 262.8857 15.08830002220516
STARLINK-4170           
1 53140U 22083J   26196.91668981  .00023332  00000+0  95018-3 0  9998
2 53140  53.1605 317.4064 0000689  26.3397 103.1361 15.24403292  5702
STARLINK-4103           
1 53141U 22083K   26196.91668981 -.00011807  00000+0 -32796-3 0  9999
2 53141  53.1592 314.9221 0001122  67.8215 357.3197 15.35411983  5794
STARLINK-4101           
1 53142U 22083L   26196.53479000 -.00000028  00000+0  10481-4 0  9990
2 53142  53.1615 316.8135 0000999  75.1768 284.9345 15.33547090220574
STARLINK-4102           
1 53143U 22083M   26196.85056017 -.00003345  00000+0 -16445-3 0  9996
2 53143  53.1622 317.4929 0000864 176.8694 183.2306 15.14267439220583
STARLINK-4100           
1 53144U 22083N   26196.51893637  .00000253  00000+0  19041-4 0  9996
2 53144  53.1612 316.7652 0001493  49.0746 311.0386 15.33542571220567
STARLINK-4106           
1 53145U 22083P   26196.91668981 -.00011967  00000+0 -40283-3 0  9990
2 53145  53.1603 316.8828 0000900  70.0485 128.0895 15.29373154  5791
STARLINK-4094           
1 53147U 22083R   26196.80825786  .00000155  00000+0  15338-4 0  9997
2 53147  53.1617 315.2418 0000998  72.3301 287.7811 15.35404201221263
STARLINK-4021           
1 53149U 22083T   26196.91668981  .00012861  00000+0  42592-3 0  9991
2 53149  53.1597 306.6598 0001151  68.6757 215.2683 15.31666297  5545
STARLINK-4040           
1 53151U 22083V   26196.91668981  .00007813  00000+0  38121-3 0  9998
2 53151  53.1587 307.3517 0000879  99.5473  33.8493 15.19204697  5697
STARLINK-4045           
1 53152U 22083W   26196.91668981  .00146403  00000+0  15153-2 0  9997
2 53152  53.2162 288.4341 0001302  55.6654 126.4620 15.63762637  5905
STARLINK-4098           
1 53153U 22083X   26196.50788663  .00000715  00000+0  63034-4 0  9991
2 53153  53.1612 310.0624 0001238  58.2012 301.9100 15.08831618220655
STARLINK-4077           
1 53154U 22083Y   26196.51524528  .00000707  00000+0  62493-4 0  9990
2 53154  53.1609 310.0276 0001039  65.1322 294.9778 15.08831092220653
STARLINK-4088           
1 53155U 22083Z   26196.69924888 -.00000058  00000+0  14441-4 0  9993
2 53155  53.1614 309.2004 0001083  83.9834 276.1281 15.08832021221323
STARLINK-4087           
1 53156U 22083AA  26196.55571274 -.00000033  00000+0  16005-4 0  9997
2 53156  53.1609 309.7194 0001143  87.0815 273.0307 15.08831153220660
STARLINK-4054           
1 53158U 22083AC  26196.91668981  .00002814  00000+0  13221-3 0  9995
2 53158  53.1598 307.1922 0000295 179.4191  75.3468 15.22959546  5597
STARLINK-4111           
1 53159U 22083AD  26196.55208117 -.00004859  00000+0 -28781-3 0  9997
2 53159  53.1611 309.8631 0001434  98.1703 261.9451 15.08788011220665
STARLINK-4096           
1 53160U 22083AE  26196.49684757 -.00000094  00000+0  12149-4 0  9998
2 53160  53.1623 310.1124 0000931  86.0701 274.0397 15.08832602220656
STARLINK-4055           
1 53161U 22083AF  26196.91668981  .00002882  00000+0  14031-3 0  9994
2 53161  53.1611 307.3828 0001193   1.6871 315.2654 15.21616254  5793
STARLINK-4114           
1 53162U 22083AG  26196.91668981  .00013712  00000+0  54086-3 0  9993
2 53162  53.1588 307.6221 0001683  68.3784  43.6159 15.25856737  5646
STARLINK-4104           
1 53163U 22083AH  26196.74711474 -.00004139  00000+0 -24216-3 0  9998
2 53163  53.1609 309.1302 0001075 113.2386 246.8719 15.08828794220697
STARLINK-4116           
1 53164U 22083AJ  26196.54468419 -.00000910  00000+0 -39113-4 0  9991
2 53164  53.1606 309.8966 0001059  93.1547 266.9565 15.08833446220664
STARLINK-4090           
1 53165U 22083AK  26196.79492227  .00000887  00000+0  73808-4 0  9993
2 53165  53.1594 308.7646 0001213  98.5419 261.5710 15.08828260220709
